[{"OBJECT_NAME":"SITRO-TD-3","OBJECT_ID":"2025-313Y","EPOCH":"2026-03-09T22:34:33.372192","MEAN_MOTION":15.21559953,"ECCENTRICITY":0.00145757,"INCLINATION":97.4011,"RA_OF_ASC_NODE":145.2018,"ARG_OF_PERICENTER":358.2913,"MEAN_ANOMALY":1.827,"EPHEMERIS_TYPE":0,"CLASSIFICATION_TYPE":"U","NORAD_CAT_ID":67270,"ELEMENT_SET_NO":999,"REV_AT_EPOCH":1085,"BSTAR":0.00053243574,"MEAN_MOTION_DOT":0.00011975,"MEAN_MOTION_DDOT":0},{"OBJECT_NAME":"GALAPAGOS-UTE-SWSU","OBJECT_ID":"2025-313AH","EPOCH":"2026-03-09T22:34:20.965152","MEAN_MOTION":15.21376357,"ECCENTRICITY":0.00141435,"INCLINATION":97.3994,"RA_OF_ASC_NODE":145.1857,"ARG_OF_PERICENTER":358.5114,"MEAN_ANOMALY":1.6077,"EPHEMERIS_TYPE":0,"CLASSIFICATION_TYPE":"U","NORAD_CAT_ID":67279,"ELEMENT_SET_NO":999,"REV_AT_EPOCH":1085,"BSTAR":0.00042377017,"MEAN_MOTION_DOT":9.461e-5,"MEAN_MOTION_DDOT":0}]
